XRISM                   
1 57800U 23137A   23281.09317433  .00007572  00000+0  61695-3 0  9992
2 57800  31.0027 179.6856 0010325 226.1065 133.8718 14.98143935  4664
